[
    {
        "OBJECT_NAME": "QZS-1 (MICHIBIKI-1)",
        "OBJECT_ID": "2010-045A",
        "EPOCH": "2025-03-03T07:57:56.992032",
        "MEAN_MOTION": 0.87715057,
        "ECCENTRICITY": 9e-05,
        "INCLINATION": 43.5904,
        "RA_OF_ASC_NODE": 121.5699,
        "ARG_OF_PERICENTER": 86.4089,
        "MEAN_ANOMALY": 90.9384,
        "EPHEMERIS_TYPE": 0,
        "CLASSIFICATION_TYPE": "U",
        "NORAD_CAT_ID": 37158,
        "ELEMENT_SET_NO": 999,
        "REV_AT_EPOCH": 5226,
        "BSTAR": 0,
        "MEAN_MOTION_DOT": -7e-08,
        "MEAN_MOTION_DDOT": 0
    },
    {
        "OBJECT_NAME": "QZS-2 (MICHIBIKI-2)",
        "OBJECT_ID": "2017-028A",
        "EPOCH": "2025-03-02T19:56:38.618592",
        "MEAN_MOTION": 1.00263772,
        "ECCENTRICITY": 0.0745867,
        "INCLINATION": 40.1616,
        "RA_OF_ASC_NODE": 250.0168,
        "ARG_OF_PERICENTER": 270.273,
        "MEAN_ANOMALY": 81.0383,
        "EPHEMERIS_TYPE": 0,
        "CLASSIFICATION_TYPE": "U",
        "NORAD_CAT_ID": 42738,
        "ELEMENT_SET_NO": 999,
        "REV_AT_EPOCH": 290,
        "BSTAR": 0,
        "MEAN_MOTION_DOT": -1.27e-06,
        "MEAN_MOTION_DDOT": 0
    },
    {
        "OBJECT_NAME": "QZS-3 (MICHIBIKI-3)",
        "OBJECT_ID": "2017-048A",
        "EPOCH": "2025-03-03T13:57:51.762240",
        "MEAN_MOTION": 1.00273735,
        "ECCENTRICITY": 0.0002435,
        "INCLINATION": 0.0536,
        "RA_OF_ASC_NODE": 169.4902,
        "ARG_OF_PERICENTER": 175.8994,
        "MEAN_ANOMALY": 152.6643,
        "EPHEMERIS_TYPE": 0,
        "CLASSIFICATION_TYPE": "U",
        "NORAD_CAT_ID": 42917,
        "ELEMENT_SET_NO": 999,
        "REV_AT_EPOCH": 2754,
        "BSTAR": 0,
        "MEAN_MOTION_DOT": -3.52e-06,
        "MEAN_MOTION_DDOT": 0
    },
    {
        "OBJECT_NAME": "QZS-4 (MICHIBIKI-4)",
        "OBJECT_ID": "2017-062A",
        "EPOCH": "2025-03-03T13:31:05.526624",
        "MEAN_MOTION": 1.00281046,
        "ECCENTRICITY": 0.0749074,
        "INCLINATION": 40.3845,
        "RA_OF_ASC_NODE": 349.4897,
        "ARG_OF_PERICENTER": 269.635,
        "MEAN_ANOMALY": 245.0303,
        "EPHEMERIS_TYPE": 0,
        "CLASSIFICATION_TYPE": "U",
        "NORAD_CAT_ID": 42965,
        "ELEMENT_SET_NO": 999,
        "REV_AT_EPOCH": 2708,
        "BSTAR": 0,
        "MEAN_MOTION_DOT": -3.17e-06,
        "MEAN_MOTION_DDOT": 0
    },
    {
        "OBJECT_NAME": "QZS-1R (MICHIBIKI-1R)",
        "OBJECT_ID": "2021-096A",
        "EPOCH": "2025-03-03T09:25:21.492768",
        "MEAN_MOTION": 1.00289284,
        "ECCENTRICITY": 0.074904,
        "INCLINATION": 36.4803,
        "RA_OF_ASC_NODE": 86.602,
        "ARG_OF_PERICENTER": 269.4804,
        "MEAN_ANOMALY": 81.9228,
        "EPHEMERIS_TYPE": 0,
        "CLASSIFICATION_TYPE": "U",
        "NORAD_CAT_ID": 49336,
        "ELEMENT_SET_NO": 999,
        "REV_AT_EPOCH": 1228,
        "BSTAR": 0,
        "MEAN_MOTION_DOT": -2.37e-06,
        "MEAN_MOTION_DDOT": 0
    },
    {
        "OBJECT_NAME": "QZS-6 (MICHIBIKI-6)",
        "OBJECT_ID": "2025-023A",
        "EPOCH": "2025-03-02T08:18:46.755072",
        "MEAN_MOTION": 1.00270432,
        "ECCENTRICITY": 0.0001423,
        "INCLINATION": 0.0557,
        "RA_OF_ASC_NODE": 328.0919,
        "ARG_OF_PERICENTER": 43.4437,
        "MEAN_ANOMALY": 4.0706,
        "EPHEMERIS_TYPE": 0,
        "CLASSIFICATION_TYPE": "U",
        "NORAD_CAT_ID": 62876,
        "ELEMENT_SET_NO": 999,
        "REV_AT_EPOCH": 22,
        "BSTAR": 0,
        "MEAN_MOTION_DOT": -2.36e-06,
        "MEAN_MOTION_DDOT": 0
    }
]