37158,QZS-1 (MICHIBIKI-1),2010,1641.68,4000.0,-,43.59,Inactive,1,HEO,Japan,Japan,Government,Navigation (Global or Regional Positioning),H2A,1 37158U 10045A   25062.33190963 -.00000007  00000+0  00000+0 0  9999,2 37158  43.5904 121.5699 0000900  86.4089  90.9384  0.87715057 52266,0.87715057,9e-05,HEO
42738,QZS-2 (MICHIBIKI-2),2017,1436.21,4000.0,+,40.16,Active,1,GSO,Japan,Japan,Government,Navigation (Global or Regional Positioning),H2A,1 42738U 17028A   25061.83100253 -.00000127  00000+0  00000+0 0  9997,2 42738  40.1616 250.0168 0745867 270.2730  81.0383  1.00263772  2906,1.00263772,0.0745867,GSO
42917,QZS-3 (MICHIBIKI-3),2017,1436.07,4000.0,+,0.05,Active,1,GSO,Japan,Japan,Government,Navigation (Global or Regional Positioning),H2A,1 42917U 17048A   25062.58184910 -.00000352  00000+0  00000+0 0  9993,2 42917   0.0536 169.4902 0002435 175.8994 152.6643  1.00273735 27540,1.00273735,0.0002435,GEO
42965,QZS-4 (MICHIBIKI-4),2017,1435.96,4000.0,+,40.39,Active,1,GSO,Japan,Japan,Government,Navigation (Global or Regional Positioning),H2A,1 42965U 17062A   25062.56325841 -.00000317  00000+0  00000+0 0  9991,2 42965  40.3845 349.4897 0749074 269.6350 245.0303  1.00281046 27084,1.00281046,0.0749074,GSO
49336,QZS-1R (MICHIBIKI-1R),2021,1435.84,4100.0,+,36.48,Active,1,GSO,Japan,Japan,Government,Navigation (Global or Regional Positioning),H2A,1 49336U 21096A   25062.39260987 -.00000237  00000+0  00000+0 0  9993,2 49336  36.4803  86.6020 0749040 269.4804  81.9228  1.00289284 12287,1.00289284,0.074904,GSO
62876,QZS-6 (MICHIBIKI-6),2025,1436.12,-1.0,+,0.06,Active,0,GSO,Japan,Japan,Unknown,Unknown,Unknown,1 62876U 25023A   25061.34637448 -.00000236  00000+0  00000+0 0  9994,2 62876   0.0557 328.0919 0001423  43.4437   4.0706  1.00270432   225,1.00270432,0.0001423,GEO
